start=new Date('2022-07-26T00:00:00.000Z').valueOf();
sats=[{"INCLINATION":"53.0548","PERIAPSIS":"546.210","RCS_SIZE":"LARGE","ECCENTRICITY":"0.00014570","NORAD_CAT_ID":"48641","REF_FRAME":"TEME","GP_ID":"208861336","OBJECT_ID":"2021-044D","MEAN_MOTION":"15.06398169","REV_AT_EPOCH":"6430","EPOCH":"2022-07-25T16:37:37.439616","COUNTRY_CODE":"US","PERIOD":"95.592","CENTER_NAME":"EARTH","LAUNCH_DATE":"2021-05-26","SITE":"AFETR","BSTAR":"0.00001250100000","TLE_LINE2":"2 48641  53.0548 300.7891 0001457  75.7962 284.3188 15.06398169 64306","OBJECT_TYPE":"PAYLOAD","MEAN_MOTION_DOT":"-0.00000095","MEAN_ELEMENT_THEORY":"SGP4","RA_OF_ASC_NODE":"300.7891","MEAN_ANOMALY":"284.3188","EPHEMERIS_TYPE":"0","SEMIMAJOR_AXIS":"6925.354","DECAY_DATE":null,"APOAPSIS":"548.228","CLASSIFICATION_TYPE":"U","ELEMENT_SET_NO":"999","FILE":"3521711","MEAN_MOTION_DDOT":"0.0000000000000","TIME_SYSTEM":"UTC","ARG_OF_PERICENTER":"75.7962","OBJECT_NAME":"STARLINK-2754","TLE_LINE1":"1 48641U 21044D   22206.69279444 -.00000095  00000-0  12501-4 0  9999"},{"EPHEMERIS_TYPE":"0","SEMIMAJOR_AXIS":"6925.363","DECAY_DATE":null,"ELEMENT_SET_NO":"999","APOAPSIS":"548.051","CLASSIFICATION_TYPE":"U","FILE":"3521711","OBJECT_TYPE":"PAYLOAD","TLE_LINE2":"2 48642  53.0539 301.3150 0001189  78.6737 281.4386 15.06395294 64287","MEAN_MOTION_DOT":"-0.00000013","MEAN_ELEMENT_THEORY":"SGP4","RA_OF_ASC_NODE":"301.3150","MEAN_ANOMALY":"281.4386","TIME_SYSTEM":"UTC","OBJECT_NAME":"STARLINK-2646","ARG_OF_PERICENTER":"78.6737","TLE_LINE1":"1 48642U 21044E   22206.57389519 -.00000013  00000-0  18019-4 0  9992","MEAN_MOTION_DDOT":"0.0000000000000","GP_ID":"208862088","OBJECT_ID":"2021-044E","REV_AT_EPOCH":"6428","MEAN_MOTION":"15.06395294","EPOCH":"2022-07-25T13:46:24.544416","PERIAPSIS":"546.405","INCLINATION":"53.0539","RCS_SIZE":"LARGE","ECCENTRICITY":"0.00011890","NORAD_CAT_ID":"48642","REF_FRAME":"TEME","CENTER_NAME":"EARTH","LAUNCH_DATE":"2021-05-26","SITE":"AFETR","BSTAR":"0.00001801900000","COUNTRY_CODE":"US","PERIOD":"95.592"},{"ELEMENT_SET_NO":"999","APOAPSIS":"548.250","CLASSIFICATION_TYPE":"U","FILE":"3521711","EPHEMERIS_TYPE":"0","SEMIMAJOR_AXIS":"6925.401","DECAY_DATE":null,"MEAN_ANOMALY":"271.5227","OBJECT_TYPE":"PAYLOAD","TLE_LINE2":"2 48643  53.0568 300.8029 0001421  88.5925 271.5227 15.06382990 64303","MEAN_MOTION_DOT":"-0.00001519","MEAN_ELEMENT_THEORY":"SGP4","RA_OF_ASC_NODE":"300.8029","TLE_LINE1":"1 48643U 21044F   22206.68817292 -.00001519  00000-0 -83136-4 0  9994","TIME_SYSTEM":"UTC","ARG_OF_PERICENTER":"88.5925","OBJECT_NAME":"STARLINK-2704","MEAN_MOTION_DDOT":"0.0000000000000","OBJECT_ID":"2021-044F","REV_AT_EPOCH":"6430","MEAN_MOTION":"15.06382990","EPOCH":"2022-07-25T16:30:58.140288","GP_ID":"208862838","ECCENTRICITY":"0.00014210","RCS_SIZE":"LARGE","NORAD_CAT_ID":"48643","REF_FRAME":"TEME","INCLINATION":"53.0568","PERIAPSIS":"546.282","BSTAR":"-0.00008313600000","SITE":"AFETR","CENTER_NAME":"EARTH","LAUNCH_DATE":"2021-05-26","PERIOD":"95.593","COUNTRY_CODE":"US"},{"PERIOD":"95.593","COUNTRY_CODE":"US","SITE":"AFETR","BSTAR":"-0.00012605000000","CENTER_NAME":"EARTH","LAUNCH_DATE":"2021-05-26","RCS_SIZE":"LARGE","ECCENTRICITY":"0.00012150","NORAD_CAT_ID":"48644","REF_FRAME":"TEME","PERIAPSIS":"546.404","INCLINATION":"53.0544","OBJECT_ID":"2021-044G","MEAN_MOTION":"15.06389682","REV_AT_EPOCH":"6428","EPOCH":"2022-07-25T13:15:56.610720","GP_ID":"208861586","MEAN_MOTION_DDOT":"0.0000000000000","TLE_LINE1":"1 48644U 21044G   22206.55273855 -.00002158  00000-0 -12605-3 0  9994","TIME_SYSTEM":"UTC","OBJECT_NAME":"STARLINK-2695","ARG_OF_PERICENTER":"83.1511","MEAN_ANOMALY":"276.9616","OBJECT_TYPE":"PAYLOAD","TLE_LINE2":"2 48644  53.0544 301.4215 0001215  83.1511 276.9616 15.06389682 64288","MEAN_MOTION_DOT":"-0.00002158","RA_OF_ASC_NODE":"301.4215","MEAN_ELEMENT_THEORY":"SGP4","ELEMENT_SET_NO":"999","APOAPSIS":"548.087","CLASSIFICATION_TYPE":"U","FILE":"3521711","SEMIMAJOR_AXIS":"6925.380","EPHEMERIS_TYPE":"0","DECAY_DATE":null},{"MEAN_ANOMALY":"282.6367","OBJECT_TYPE":"PAYLOAD","TLE_LINE2":"2 48645  53.0553 301.4424 0001174  77.4753 282.6367 15.06397960 64284","MEAN_MOTION_DOT":"-0.00000468","MEAN_ELEMENT_THEORY":"SGP4","RA_OF_ASC_NODE":"301.4424","APOAPSIS":"548.033","ELEMENT_SET_NO":"999","CLASSIFICATION_TYPE":"U","FILE":"3521711","SEMIMAJOR_AXIS":"6925.355","EPHEMERIS_TYPE":"0","DECAY_DATE":null,"MEAN_MOTION_DDOT":"0.0000000000000","TLE_LINE1":"1 48645U 21044H   22206.54904471 -.00000468  00000-0 -12522-4 0  9990","TIME_SYSTEM":"UTC","OBJECT_NAME":"STARLINK-2733","ARG_OF_PERICENTER":"77.4753","ECCENTRICITY":"0.00011740","RCS_SIZE":"LARGE","NORAD_CAT_ID":"48645","REF_FRAME":"TEME","INCLINATION":"53.0553","PERIAPSIS":"546.407","OBJECT_ID":"2021-044H","MEAN_MOTION":"15.06397960","REV_AT_EPOCH":"6428","EPOCH":"2022-07-25T13:10:37.462944","GP_ID":"208861836","PERIOD":"95.592","COUNTRY_CODE":"US","BSTAR":"-0.00001252200000","SITE":"AFETR","CENTER_NAME":"EARTH","LAUNCH_DATE":"2021-05-26"},{"ARG_OF_PERICENTER":"92.0073","OBJECT_NAME":"STARLINK-2732","TIME_SYSTEM":"UTC","TLE_LINE1":"1 48646U 21044J   22206.74440117 -.00000624  00000-0 -23028-4 0  9992","MEAN_MOTION_DDOT":"0.0000000000000","SEMIMAJOR_AXIS":"6925.393","EPHEMERIS_TYPE":"0","DECAY_DATE":null,"FILE":"3521498","ELEMENT_SET_NO":"999","APOAPSIS":"548.233","CLASSIFICATION_TYPE":"U","MEAN_MOTION_DOT":"-0.00000624","MEAN_ELEMENT_THEORY":"SGP4","RA_OF_ASC_NODE":"300.5506","TLE_LINE2":"2 48646  53.0565 300.5506 0001409  92.0073 268.1078 15.06385654 65217","OBJECT_TYPE":"PAYLOAD","MEAN_ANOMALY":"268.1078","LAUNCH_DATE":"2021-05-26","CENTER_NAME":"EARTH","BSTAR":"-0.00002302800000","SITE":"AFETR","COUNTRY_CODE":"US","PERIOD":"95.593","GP_ID":"208835494","EPOCH":"2022-07-25T17:51:56.261088","OBJECT_ID":"2021-044J","REV_AT_EPOCH":"6521","MEAN_MOTION":"15.06385654","PERIAPSIS":"546.282","INCLINATION":"53.0565","NORAD_CAT_ID":"48646","REF_FRAME":"TEME","RCS_SIZE":"LARGE","ECCENTRICITY":"0.00014090"},{"PERIOD":"95.592","COUNTRY_CODE":"US","SITE":"AFETR","BSTAR":"-0.00010083000000","CENTER_NAME":"EARTH","LAUNCH_DATE":"2021-05-26","ECCENTRICITY":"0.00013110","RCS_SIZE":"LARGE","NORAD_CAT_ID":"48647","REF_FRAME":"TEME","INCLINATION":"53.0553","PERIAPSIS":"546.314","OBJECT_ID":"2021-044K","MEAN_MOTION":"15.06397112","REV_AT_EPOCH":"6521","EPOCH":"2022-07-25T17:46:38.020512","GP_ID":"208835500","MEAN_MOTION_DDOT":"0.0000000000000","TLE_LINE1":"1 48647U 21044K   22206.74071783 -.00001783  00000-0 -10083-3 0  9995","TIME_SYSTEM":"UTC","OBJECT_NAME":"STARLINK-2691","ARG_OF_PERICENTER":"93.9837","MEAN_ANOMALY":"266.1302","OBJECT_TYPE":"PAYLOAD","TLE_LINE2":"2 48647  53.0553 300.5775 0001311  93.9837 266.1302 15.06397112 65213","MEAN_MOTION_DOT":"-0.00001783","RA_OF_ASC_NODE":"300.5775","MEAN_ELEMENT_THEORY":"SGP4","APOAPSIS":"548.130","CLASSIFICATION_TYPE":"U","ELEMENT_SET_NO":"999","FILE":"3521498","SEMIMAJOR_AXIS":"6925.357","EPHEMERIS_TYPE":"0","DECAY_DATE":null},{"PERIOD":"95.596","COUNTRY_CODE":"US","SITE":"AFETR","BSTAR":"0.00106510000000","LAUNCH_DATE":"2021-05-26","CENTER_NAME":"EARTH","NORAD_CAT_ID":"48648","REF_FRAME":"TEME","RCS_SIZE":"LARGE","ECCENTRICITY":"0.00017350","INCLINATION":"53.0559","PERIAPSIS":"546.214","EPOCH":"2022-07-25T16:32:21.971616","OBJECT_ID":"2021-044L","MEAN_MOTION":"15.06334062","REV_AT_EPOCH":"6430","GP_ID":"208861087","MEAN_MOTION_DDOT":"0.0000000000000","TLE_LINE1":"1 48648U 21044L   22206.68914319  .00015590  00000-0  10651-2 0  9999","OBJECT_NAME":"STARLINK-2521","ARG_OF_PERICENTER":"76.1132","TIME_SYSTEM":"UTC","MEAN_ANOMALY":"284.0050","MEAN_MOTION_DOT":"0.00015590","RA_OF_ASC_NODE":"300.9673","MEAN_ELEMENT_THEORY":"SGP4","OBJECT_TYPE":"PAYLOAD","TLE_LINE2":"2 48648  53.0559 300.9673 0001735  76.1132 284.0050 15.06334062 64305","FILE":"3521711","APOAPSIS":"548.617","ELEMENT_SET_NO":"999","CLASSIFICATION_TYPE":"U","SEMIMAJOR_AXIS":"6925.551","EPHEMERIS_TYPE":"0","DECAY_DATE":null},{"SITE":"AFETR","BSTAR":"-0.00005344400000","CENTER_NAME":"EARTH","LAUNCH_DATE":"2021-05-26","PERIOD":"95.592","COUNTRY_CODE":"US","REV_AT_EPOCH":"6427","MEAN_MOTION":"15.06399991","OBJECT_ID":"2021-044M","EPOCH":"2022-07-25T12:54:42.544224","GP_ID":"208861337","RCS_SIZE":"LARGE","ECCENTRICITY":"0.00011810","REF_FRAME":"TEME","NORAD_CAT_ID":"48649","INCLINATION":"53.0556","PERIAPSIS":"546.396","TLE_LINE1":"1 48649U 21044M   22206.53799241 -.00001077  00000-0 -53444-4 0  9995","TIME_SYSTEM":"UTC","OBJECT_NAME":"STARLINK-2673","ARG_OF_PERICENTER":"92.9404","MEAN_MOTION_DDOT":"0.0000000000000","APOAPSIS":"548.031","ELEMENT_SET_NO":"999","CLASSIFICATION_TYPE":"U","FILE":"3521711","DECAY_DATE":null,"SEMIMAJOR_AXIS":"6925.349","EPHEMERIS_TYPE":"0","MEAN_ANOMALY":"267.1720","TLE_LINE2":"2 48649  53.0556 301.4807 0001181  92.9404 267.1720 15.06399991 64275","OBJECT_TYPE":"PAYLOAD","MEAN_ELEMENT_THEORY":"SGP4","RA_OF_ASC_NODE":"301.4807","MEAN_MOTION_DOT":"-0.00001077"},{"OBJECT_TYPE":"PAYLOAD","TLE_LINE2":"2 48650  53.0550 300.6160 0001232  87.7711 272.3419 15.06398702 64300","RA_OF_ASC_NODE":"300.6160","MEAN_ELEMENT_THEORY":"SGP4","MEAN_MOTION_DOT":"-0.00001368","MEAN_ANOMALY":"272.3419","DECAY_DATE":null,"EPHEMERIS_TYPE":"0","SEMIMAJOR_AXIS":"6925.353","ELEMENT_SET_NO":"999","APOAPSIS":"548.071","CLASSIFICATION_TYPE":"U","FILE":"3521711","MEAN_MOTION_DDOT":"0.0000000000000","TIME_SYSTEM":"UTC","ARG_OF_PERICENTER":"87.7711","OBJECT_NAME":"STARLINK-2672","TLE_LINE1":"1 48650U 21044N   22206.73334593 -.00001368  00000-0 -72935-4 0  9993","PERIAPSIS":"546.364","INCLINATION":"53.0550","ECCENTRICITY":"0.00012320","RCS_SIZE":"LARGE","REF_FRAME":"TEME","NORAD_CAT_ID":"48650","GP_ID":"208862089","MEAN_MOTION":"15.06398702","REV_AT_EPOCH":"6430","OBJECT_ID":"2021-044N","EPOCH":"2022-07-25T17:36:01.088352","COUNTRY_CODE":"US","PERIOD":"95.592","CENTER_NAME":"EARTH","LAUNCH_DATE":"2021-05-26","SITE":"AFETR","BSTAR":"-0.00007293500000"}];
